[
    {
        "Altitude(m)": 561284.3459366186,
        "Argument of Periapsis(deg)": 0.026491964442854003,
        "Eccentricity": 0.0,
        "Inclination(deg)": 53.0,
        "Latitude(deg)": -26.836437994637393,
        "Longitude(deg)": -70.46582601345148,
        "Mean Anomaly(deg)": -34.17902852968969,
        "RAAN(deg)": 54.96057347411207,
        "Satellite Name": "Starlink Shell 1 259",
        "Satellite Number": 259,
        "Semi-Major Axis(m)": 6931778.249405717,
        "Time(s)": 760
    },
    {
        "Altitude(m)": 561112.1159556045,
        "Argument of Periapsis(deg)": 0.02684054292236524,
        "Eccentricity": 0.0,
        "Inclination(deg)": 53.0,
        "Latitude(deg)": -26.370990072564844,
        "Longitude(deg)": -70.03737493203796,
        "Mean Anomaly(deg)": -33.552197326132934,
        "RAAN(deg)": 54.9600547040346,
        "Satellite Name": "Starlink Shell 1 259",
        "Satellite Number": 259,
        "Semi-Major Axis(m)": 6931778.249405717,
        "Time(s)": 770
    },
    {
        "Altitude(m)": 560940.5589480071,
        "Argument of Periapsis(deg)": 0.027189121401876473,
        "Eccentricity": 0.0,
        "Inclination(deg)": 53.0,
        "Latitude(deg)": -25.903969235159046,
        "Longitude(deg)": -69.61266117729518,
        "Mean Anomaly(deg)": -32.92536612257623,
        "RAAN(deg)": 54.95953593395713,
        "Satellite Name": "Starlink Shell 1 259",
        "Satellite Number": 259,
        "Semi-Major Axis(m)": 6931778.249405717,
        "Time(s)": 780
    },
    {
        "Altitude(m)": 560769.7376402186,
        "Argument of Periapsis(deg)": 0.02753769988138771,
        "Eccentricity": 0.0,
        "Inclination(deg)": 53.0,
        "Latitude(deg)": -25.43541841262803,
        "Longitude(deg)": -69.19159096826212,
        "Mean Anomaly(deg)": -32.298534919019566,
        "RAAN(deg)": 54.95901716387965,
        "Satellite Name": "Starlink Shell 1 259",
        "Satellite Number": 259,
        "Semi-Major Axis(m)": 6931778.249405717,
        "Time(s)": 790
    },
    {
        "Altitude(m)": 560599.7142827444,
        "Argument of Periapsis(deg)": 0.02788627836089895,
        "Eccentricity": 0.0,
        "Inclination(deg)": 53.0,
        "Latitude(deg)": -24.965379647179034,
        "Longitude(deg)": -68.77407230167687,
        "Mean Anomaly(deg)": -31.67170371546275,
        "RAAN(deg)": 54.95849839380218,
        "Satellite Name": "Starlink Shell 1 259",
        "Satellite Number": 259,
        "Semi-Major Axis(m)": 6931778.249405717,
        "Time(s)": 800
    },
    {
        "Altitude(m)": 560430.5506223069,
        "Argument of Periapsis(deg)": 0.02823485684041019,
        "Eccentricity": 0.0,
        "Inclination(deg)": 53.0,
        "Latitude(deg)": -24.493894120041038,
        "Longitude(deg)": -68.3600144358553,
        "Mean Anomaly(deg)": -31.0448725119061,
        "RAAN(deg)": 54.95797962372471,
        "Satellite Name": "Starlink Shell 1 259",
        "Satellite Number": 259,
        "Semi-Major Axis(m)": 6931778.249405717,
        "Time(s)": 810
    },
    {
        "Altitude(m)": 560262.3078741508,
        "Argument of Periapsis(deg)": 0.028583435319921423,
        "Eccentricity": 0.0,
        "Inclination(deg)": 53.0,
        "Latitude(deg)": -24.021002177970697,
        "Longitude(deg)": -67.94932737282873,
        "Mean Anomaly(deg)": -30.41804130834939,
        "RAAN(deg)": 54.95746085364723,
        "Satellite Name": "Starlink Shell 1 259",
        "Satellite Number": 259,
        "Semi-Major Axis(m)": 6931778.249405717,
        "Time(s)": 820
    },
    {
        "Altitude(m)": 560095.0466946212,
        "Argument of Periapsis(deg)": 0.028932013799432665,
        "Eccentricity": 0.0,
        "Inclination(deg)": 53.0,
        "Latitude(deg)": -23.546743359242303,
        "Longitude(deg)": -67.54192285177506,
        "Mean Anomaly(deg)": -29.791210104792626,
        "RAAN(deg)": 54.956942083569764,
        "Satellite Name": "Starlink Shell 1 259",
        "Satellite Number": 259,
        "Semi-Major Axis(m)": 6931778.249405717,
        "Time(s)": 830
    },
    {
        "Altitude(m)": 559928.8271539798,
        "Argument of Periapsis(deg)": 0.029280592278943897,
        "Eccentricity": 0.0,
        "Inclination(deg)": 53.0,
        "Latitude(deg)": -23.071156419117045,
        "Longitude(deg)": -67.13771382814099,
        "Mean Anomaly(deg)": -29.16437890123597,
        "RAAN(deg)": 54.95642331349229,
        "Satellite Name": "Starlink Shell 1 259",
        "Satellite Number": 259,
        "Semi-Major Axis(m)": 6931778.249405717,
        "Time(s)": 840
    },
    {
        "Altitude(m)": 559763.70870952,
        "Argument of Periapsis(deg)": 0.029629170758455132,
        "Eccentricity": 0.0,
        "Inclination(deg)": 53.0,
        "Latitude(deg)": -22.59427935479335,
        "Longitude(deg)": -66.7366139514674,
        "Mean Anomaly(deg)": -28.537547697679205,
        "RAAN(deg)": 54.95590454341481,
        "Satellite Name": "Starlink Shell 1 259",
        "Satellite Number": 259,
        "Semi-Major Axis(m)": 6931778.249405717,
        "Time(s)": 850
    },
    {
        "Altitude(m)": 559599.7501789207,
        "Argument of Periapsis(deg)": 0.02997774923796637,
        "Eccentricity": 0.0,
        "Inclination(deg)": 53.0,
        "Latitude(deg)": -22.1161494298425,
        "Longitude(deg)": -66.33853872301735,
        "Mean Anomaly(deg)": -27.910716494122497,
        "RAAN(deg)": 54.95538577333734,
        "Satellite Name": "Starlink Shell 1 259",
        "Satellite Number": 259,
        "Semi-Major Axis(m)": 6931778.249405717,
        "Time(s)": 860
    },
    {
        "Altitude(m)": 559437.0097139836,
        "Argument of Periapsis(deg)": 0.030326327717477602,
        "Eccentricity": 0.0,
        "Inclination(deg)": 53.0,
        "Latitude(deg)": -21.636803198128675,
        "Longitude(deg)": -65.94340413089485,
        "Mean Anomaly(deg)": -27.283885290565784,
        "RAAN(deg)": 54.95486700325987,
        "Satellite Name": "Starlink Shell 1 259",
        "Satellite Number": 259,
        "Semi-Major Axis(m)": 6931778.249405717,
        "Time(s)": 870
    },
    {
        "Altitude(m)": 559275.5447745923,
        "Argument of Periapsis(deg)": 0.030674906196988847,
        "Eccentricity": 0.0,
        "Inclination(deg)": 53.0,
        "Latitude(deg)": -21.156276527222765,
        "Longitude(deg)": -65.55112780567943,
        "Mean Anomaly(deg)": -26.657054087009083,
        "RAAN(deg)": 54.954348233182394,
        "Satellite Name": "Starlink Shell 1 259",
        "Satellite Number": 259,
        "Semi-Major Axis(m)": 6931778.249405717,
        "Time(s)": 880
    },
    {
        "Altitude(m)": 559115.4121030627,
        "Argument of Periapsis(deg)": 0.031023484676500086,
        "Eccentricity": 0.0,
        "Inclination(deg)": 53.0,
        "Latitude(deg)": -20.67460462131211,
        "Longitude(deg)": -65.16162849424796,
        "Mean Anomaly(deg)": -26.030222883452375,
        "RAAN(deg)": 54.953829463104924,
        "Satellite Name": "Starlink Shell 1 259",
        "Satellite Number": 259,
        "Semi-Major Axis(m)": 6931778.249405717,
        "Time(s)": 890
    },
    {
        "Altitude(m)": 558956.6676988127,
        "Argument of Periapsis(deg)": 0.03137206315601132,
        "Eccentricity": 0.0,
        "Inclination(deg)": 53.0,
        "Latitude(deg)": -20.191822043614444,
        "Longitude(deg)": -64.77482553284861,
        "Mean Anomaly(deg)": -25.403391679895655,
        "RAAN(deg)": 54.953310693027454,
        "Satellite Name": "Starlink Shell 1 259",
        "Satellite Number": 259,
        "Semi-Major Axis(m)": 6931778.249405717,
        "Time(s)": 900
    },
    {
        "Altitude(m)": 558799.366793397,
        "Argument of Periapsis(deg)": 0.03172064163552255,
        "Eccentricity": 0.0,
        "Inclination(deg)": 53.0,
        "Latitude(deg)": -19.7079627383041,
        "Longitude(deg)": -64.39063983238756,
        "Mean Anomaly(deg)": -24.776560476338947,
        "RAAN(deg)": 54.95279192294998,
        "Satellite Name": "Starlink Shell 1 259",
        "Satellite Number": 259,
        "Semi-Major Axis(m)": 6931778.249405717,
        "Time(s)": 910
    },
    {
        "Altitude(m)": 558643.5638258737,
        "Argument of Periapsis(deg)": 0.0320692201150338,
        "Eccentricity": 0.0,
        "Inclination(deg)": 53.0,
        "Latitude(deg)": -19.223060051957333,
        "Longitude(deg)": -64.00899335025798,
        "Mean Anomaly(deg)": -24.14972927278219,
        "RAAN(deg)": 54.95227315287251,
        "Satellite Name": "Starlink Shell 1 259",
        "Satellite Number": 259,
        "Semi-Major Axis(m)": 6931778.249405717,
        "Time(s)": 920
    },
    {
        "Altitude(m)": 558489.3124186082,
        "Argument of Periapsis(deg)": 0.032417798594545036,
        "Eccentricity": 0.0,
        "Inclination(deg)": 53.0,
        "Latitude(deg)": -18.737146754526584,
        "Longitude(deg)": -63.6298085616594,
        "Mean Anomaly(deg)": -23.52289806922553,
        "RAAN(deg)": 54.95175438279502,
        "Satellite Name": "Starlink Shell 1 259",
        "Satellite Number": 259,
        "Semi-Major Axis(m)": 6931778.249405717,
        "Time(s)": 930
    },
    {
        "Altitude(m)": 558336.6653534088,
        "Argument of Periapsis(deg)": 0.03276637707405627,
        "Eccentricity": 0.0,
        "Inclination(deg)": 53.0,
        "Latitude(deg)": -18.25025505985375,
        "Longitude(deg)": -63.25300944334701,
        "Mean Anomaly(deg)": -22.896066865668825,
        "RAAN(deg)": 54.95123561271756,
        "Satellite Name": "Starlink Shell 1 259",
        "Satellite Number": 259,
        "Semi-Major Axis(m)": 6931778.249405717,
        "Time(s)": 940
    }
]